start=new Date('2021-11-01T00:00:00.000Z').valueOf();
sats=[{"INCLINATION":"53.0540","RCS_SIZE":"LARGE","SEMIMAJOR_AXIS":"6925.350","OBJECT_ID":"2020-057W","PERIOD":"95.592","DECAY_DATE":null,"PERIAPSIS":"546.050","BSTAR":"0.00007873600000","TLE_LINE1":"1 46137U 20057W   21304.09036004  .00000891  00000-0  78736-4 0  9990","REF_FRAME":"TEME","LAUNCH_DATE":"2020-08-18","ELEMENT_SET_NO":"999","CENTER_NAME":"EARTH","OBJECT_NAME":"STARLINK-1586","TIME_SYSTEM":"UTC","MEAN_MOTION":"15.06399651","FILE":"3194431","MEAN_MOTION_DDOT":"0.0000000000000","EPOCH":"2021-10-31T02:10:07.107456","GP_ID":"188570190","NORAD_CAT_ID":"46137","MEAN_MOTION_DOT":"0.00000891","MEAN_ANOMALY":"283.2450","ECCENTRICITY":"0.00016820","RA_OF_ASC_NODE":"237.0943","TLE_LINE2":"2 46137  53.0540 237.0943 0001682  76.8727 283.2450 15.06399651 66609","ARG_OF_PERICENTER":"76.8727","EPHEMERIS_TYPE":"0","COUNTRY_CODE":"US","APOAPSIS":"548.379","CLASSIFICATION_TYPE":"U","MEAN_ELEMENT_THEORY":"SGP4","SITE":"AFETR","OBJECT_TYPE":"PAYLOAD","REV_AT_EPOCH":"6660"},{"REF_FRAME":"TEME","TLE_LINE1":"1 46138U 20057X   21304.28755362  .00001679  00000-0  13154-3 0  9994","LAUNCH_DATE":"2020-08-18","TIME_SYSTEM":"UTC","OBJECT_NAME":"STARLINK-1590","ELEMENT_SET_NO":"999","CENTER_NAME":"EARTH","FILE":"3194431","MEAN_MOTION":"15.06407215","SEMIMAJOR_AXIS":"6925.326","RCS_SIZE":"LARGE","INCLINATION":"53.0545","PERIOD":"95.592","OBJECT_ID":"2020-057X","PERIAPSIS":"545.986","DECAY_DATE":null,"BSTAR":"0.00013154000000","APOAPSIS":"548.396","EPHEMERIS_TYPE":"0","COUNTRY_CODE":"US","CLASSIFICATION_TYPE":"U","OBJECT_TYPE":"PAYLOAD","SITE":"AFETR","MEAN_ELEMENT_THEORY":"SGP4","REV_AT_EPOCH":"6635","NORAD_CAT_ID":"46138","GP_ID":"188570941","MEAN_MOTION_DDOT":"0.0000000000000","EPOCH":"2021-10-31T06:54:04.632768","MEAN_ANOMALY":"288.1194","MEAN_MOTION_DOT":"0.00001679","RA_OF_ASC_NODE":"256.2091","ECCENTRICITY":"0.00017400","ARG_OF_PERICENTER":"71.9984","TLE_LINE2":"2 46138  53.0545 256.2091 0001740  71.9984 288.1194 15.06407215 66355"},{"RA_OF_ASC_NODE":"215.5030","ECCENTRICITY":"0.00018880","ARG_OF_PERICENTER":"51.8401","TLE_LINE2":"2 46140  53.0521 215.5030 0001888  51.8401 308.2757 15.06398670 67609","NORAD_CAT_ID":"46140","GP_ID":"188574369","EPOCH":"2021-10-31T10:42:19.184832","MEAN_MOTION_DDOT":"0.0000000000000","MEAN_ANOMALY":"308.2757","MEAN_MOTION_DOT":"0.00000756","OBJECT_TYPE":"PAYLOAD","MEAN_ELEMENT_THEORY":"SGP4","SITE":"AFETR","REV_AT_EPOCH":"6760","APOAPSIS":"548.525","COUNTRY_CODE":"US","EPHEMERIS_TYPE":"0","CLASSIFICATION_TYPE":"U","PERIAPSIS":"545.910","DECAY_DATE":null,"BSTAR":"0.00006965500000","SEMIMAJOR_AXIS":"6925.353","RCS_SIZE":"LARGE","INCLINATION":"53.0521","PERIOD":"95.592","OBJECT_ID":"2020-057Z","TIME_SYSTEM":"UTC","OBJECT_NAME":"STARLINK-1594","ELEMENT_SET_NO":"999","CENTER_NAME":"EARTH","FILE":"3194473","MEAN_MOTION":"15.06398670","REF_FRAME":"TEME","TLE_LINE1":"1 46140U 20057Z   21304.44605538  .00000756  00000-0  69655-4 0  9997","LAUNCH_DATE":"2020-08-18"},{"MEAN_MOTION_DOT":"0.00002713","MEAN_ANOMALY":"281.3711","MEAN_MOTION_DDOT":"0.0000000000000","EPOCH":"2021-10-31T00:37:13.927296","GP_ID":"188569439","NORAD_CAT_ID":"46141","TLE_LINE2":"2 46141  53.0528 217.3948 0001670  78.7466 281.3711 15.06406031 66873","ARG_OF_PERICENTER":"78.7466","ECCENTRICITY":"0.00016700","RA_OF_ASC_NODE":"217.3948","CLASSIFICATION_TYPE":"U","COUNTRY_CODE":"US","EPHEMERIS_TYPE":"0","APOAPSIS":"548.352","REV_AT_EPOCH":"6687","MEAN_ELEMENT_THEORY":"SGP4","SITE":"AFETR","OBJECT_TYPE":"PAYLOAD","OBJECT_ID":"2020-057AA","PERIOD":"95.592","INCLINATION":"53.0528","RCS_SIZE":"LARGE","SEMIMAJOR_AXIS":"6925.330","BSTAR":"0.00020091000000","DECAY_DATE":null,"PERIAPSIS":"546.039","LAUNCH_DATE":"2020-08-18","TLE_LINE1":"1 46141U 20057AA  21304.02585564  .00002713  00000-0  20091-3 0  9993","REF_FRAME":"TEME","MEAN_MOTION":"15.06406031","FILE":"3194431","CENTER_NAME":"EARTH","ELEMENT_SET_NO":"999","OBJECT_NAME":"STARLINK-1596","TIME_SYSTEM":"UTC"},{"BSTAR":"0.00016912000000","PERIAPSIS":"546.059","DECAY_DATE":null,"PERIOD":"95.592","OBJECT_ID":"2020-057AB","SEMIMAJOR_AXIS":"6925.331","RCS_SIZE":"LARGE","INCLINATION":"53.0554","FILE":"3194431","MEAN_MOTION":"15.06405817","TIME_SYSTEM":"UTC","OBJECT_NAME":"STARLINK-1597","CENTER_NAME":"EARTH","ELEMENT_SET_NO":"999","LAUNCH_DATE":"2020-08-18","REF_FRAME":"TEME","TLE_LINE1":"1 46142U 20057AB  21304.57505763  .00002239  00000-0  16912-3 0  9997","ARG_OF_PERICENTER":"69.1247","TLE_LINE2":"2 46142  53.0554 254.9236 0001641  69.1247 290.9918 15.06405817 66392","RA_OF_ASC_NODE":"254.9236","ECCENTRICITY":"0.00016410","MEAN_ANOMALY":"290.9918","MEAN_MOTION_DOT":"0.00002239","NORAD_CAT_ID":"46142","GP_ID":"188570691","EPOCH":"2021-10-31T13:48:04.979232","MEAN_MOTION_DDOT":"0.0000000000000","REV_AT_EPOCH":"6639","OBJECT_TYPE":"PAYLOAD","SITE":"AFETR","MEAN_ELEMENT_THEORY":"SGP4","CLASSIFICATION_TYPE":"U","APOAPSIS":"548.332","EPHEMERIS_TYPE":"0","COUNTRY_CODE":"US"},{"PERIOD":"93.371","OBJECT_ID":"2020-057AC","SEMIMAJOR_AXIS":"6817.669","RCS_SIZE":"LARGE","INCLINATION":"53.0569","BSTAR":"0.00097627000000","PERIAPSIS":"438.696","DECAY_DATE":null,"LAUNCH_DATE":"2020-08-18","REF_FRAME":"TEME","TLE_LINE1":"1 46143U 20057AC  21304.49667527  .00042408  00000-0  97627-3 0  9990","FILE":"3194463","MEAN_MOTION":"15.42228944","TIME_SYSTEM":"UTC","OBJECT_NAME":"STARLINK-1599","ELEMENT_SET_NO":"999","CENTER_NAME":"EARTH","MEAN_ANOMALY":"297.5433","MEAN_MOTION_DOT":"0.00042408","NORAD_CAT_ID":"46143","GP_ID":"188574759","MEAN_MOTION_DDOT":"0.0000000000000","EPOCH":"2021-10-31T11:55:12.743328","ARG_OF_PERICENTER":"62.5697","TLE_LINE2":"2 46143  53.0569 231.2686 0001230  62.5697 297.5433 15.42228944 67385","RA_OF_ASC_NODE":"231.2686","ECCENTRICITY":"0.00012300","CLASSIFICATION_TYPE":"U","APOAPSIS":"440.373","EPHEMERIS_TYPE":"0","COUNTRY_CODE":"US","REV_AT_EPOCH":"6738","OBJECT_TYPE":"PAYLOAD","MEAN_ELEMENT_THEORY":"SGP4","SITE":"AFETR"},{"BSTAR":"-0.00000385150000","PERIAPSIS":"545.992","DECAY_DATE":null,"PERIOD":"95.592","OBJECT_ID":"2020-057AD","RCS_SIZE":"LARGE","INCLINATION":"53.0548","SEMIMAJOR_AXIS":"6925.345","MEAN_MOTION":"15.06401028","FILE":"3194470","ELEMENT_SET_NO":"999","CENTER_NAME":"EARTH","TIME_SYSTEM":"UTC","OBJECT_NAME":"STARLINK-1606","LAUNCH_DATE":"2020-08-18","TLE_LINE1":"1 46144U 20057AD  21304.54004423 -.00000339  00000-0 -38515-5 0  9999","REF_FRAME":"TEME","ARG_OF_PERICENTER":"66.1488","TLE_LINE2":"2 46144  53.0548 235.0812 0001759  66.1488 293.9685 15.06401028 67341","ECCENTRICITY":"0.00017590","RA_OF_ASC_NODE":"235.0812","MEAN_ANOMALY":"293.9685","MEAN_MOTION_DOT":"-0.00000339","GP_ID":"188574817","EPOCH":"2021-10-31T12:57:39.821472","MEAN_MOTION_DDOT":"0.0000000000000","NORAD_CAT_ID":"46144","REV_AT_EPOCH":"6734","MEAN_ELEMENT_THEORY":"SGP4","SITE":"AFETR","OBJECT_TYPE":"PAYLOAD","CLASSIFICATION_TYPE":"U","EPHEMERIS_TYPE":"0","COUNTRY_CODE":"US","APOAPSIS":"548.429"},{"MEAN_ANOMALY":"280.0178","MEAN_MOTION_DOT":"0.00003450","GP_ID":"188569940","MEAN_MOTION_DDOT":"0.0000000000000","EPOCH":"2021-10-31T14:04:00.542496","NORAD_CAT_ID":"46146","ARG_OF_PERICENTER":"80.0987","TLE_LINE2":"2 46146  53.0523 254.8800 0001563  80.0987 280.0178 15.06409422 66400","ECCENTRICITY":"0.00015630","RA_OF_ASC_NODE":"254.8800","CLASSIFICATION_TYPE":"U","COUNTRY_CODE":"US","EPHEMERIS_TYPE":"0","APOAPSIS":"548.267","REV_AT_EPOCH":"6640","SITE":"AFETR","MEAN_ELEMENT_THEORY":"SGP4","OBJECT_TYPE":"PAYLOAD","PERIOD":"95.592","OBJECT_ID":"2020-057AF","RCS_SIZE":"LARGE","INCLINATION":"53.0523","SEMIMAJOR_AXIS":"6925.320","BSTAR":"0.00025030000000","PERIAPSIS":"546.102","DECAY_DATE":null,"LAUNCH_DATE":"2020-08-18","TLE_LINE1":"1 46146U 20057AF  21304.58611739  .00003450  00000-0  25030-3 0  9990","REF_FRAME":"TEME","MEAN_MOTION":"15.06409422","FILE":"3194431","ELEMENT_SET_NO":"999","CENTER_NAME":"EARTH","TIME_SYSTEM":"UTC","OBJECT_NAME":"STARLINK-1608"},{"REV_AT_EPOCH":"6705","OBJECT_TYPE":"PAYLOAD","SITE":"AFETR","MEAN_ELEMENT_THEORY":"SGP4","CLASSIFICATION_TYPE":"U","APOAPSIS":"548.281","EPHEMERIS_TYPE":"0","COUNTRY_CODE":"US","ARG_OF_PERICENTER":"66.5818","TLE_LINE2":"2 46147  53.0531 254.9596 0001608  66.5818 293.5340 15.06414994 67057","RA_OF_ASC_NODE":"254.9596","ECCENTRICITY":"0.00016080","MEAN_ANOMALY":"293.5340","MEAN_MOTION_DOT":"-0.00005447","NORAD_CAT_ID":"46147","GP_ID":"188574862","EPOCH":"2021-10-31T13:37:28.187040","MEAN_MOTION_DDOT":"0.0000000000000","FILE":"3194480","MEAN_MOTION":"15.06414994","TIME_SYSTEM":"UTC","OBJECT_NAME":"STARLINK-1611","ELEMENT_SET_NO":"999","CENTER_NAME":"EARTH","LAUNCH_DATE":"2020-08-18","REF_FRAME":"TEME","TLE_LINE1":"1 46147U 20057AG  21304.56768735 -.00005447  00000-0 -34693-3 0  9993","BSTAR":"-0.00034693000000","PERIAPSIS":"546.054","DECAY_DATE":null,"PERIOD":"95.591","OBJECT_ID":"2020-057AG","SEMIMAJOR_AXIS":"6925.303","RCS_SIZE":"LARGE","INCLINATION":"53.0531"},{"LAUNCH_DATE":"2020-08-18","TLE_LINE1":"1 46148U 20057AH  21304.50687844 -.00000401  00000-0 -79935-5 0  9994","REF_FRAME":"TEME","MEAN_MOTION":"15.06391577","FILE":"3194480","ELEMENT_SET_NO":"999","CENTER_NAME":"EARTH","TIME_SYSTEM":"UTC","OBJECT_NAME":"STARLINK-1616","PERIOD":"95.593","OBJECT_ID":"2020-057AH","RCS_SIZE":"LARGE","INCLINATION":"53.0543","SEMIMAJOR_AXIS":"6925.374","BSTAR":"-0.00000799350000","PERIAPSIS":"546.120","DECAY_DATE":null,"CLASSIFICATION_TYPE":"U","EPHEMERIS_TYPE":"0","COUNTRY_CODE":"US","APOAPSIS":"548.359","REV_AT_EPOCH":"6732","MEAN_ELEMENT_THEORY":"SGP4","SITE":"AFETR","OBJECT_TYPE":"PAYLOAD","MEAN_ANOMALY":"285.6713","MEAN_MOTION_DOT":"-0.00000401","GP_ID":"188574861","EPOCH":"2021-10-31T12:09:54.297216","MEAN_MOTION_DDOT":"0.0000000000000","NORAD_CAT_ID":"46148","ARG_OF_PERICENTER":"74.4455","TLE_LINE2":"2 46148  53.0543 235.2225 0001616  74.4455 285.6713 15.06391577 67323","ECCENTRICITY":"0.00016160","RA_OF_ASC_NODE":"235.2225"}];
